O3B MPOWER F1           
1 54755U 22174A   23180.72598265 -.00000009  00000+0  00000+0 0  9998
2 54755   0.0377   7.9694 0002261 174.4174 159.1962  5.00112205 11145
